[{"name": "Country Name", "iso2": "ISO2", "iso3": "ISO3", "isoNumeric": "ISO Numeric", "phoneCode": "Phone Code", "continent": "Continent", "capital": "Capital", "currency": "Currency", "area": "Area KM2"}, {"name": "Afghanistan", "iso2": "AF", "iso3": "AFG", "isoNumeric": "4", "phoneCode": "93", "continent": "Asia", "capital": "Kabul", "currency": "Afghani", "area": "647500"}, {"name": "Albania", "iso2": "AL", "iso3": "ALB", "isoNumeric": "8", "phoneCode": "355", "continent": "Europe", "capital": "Tirana", "currency": "Lek", "area": "28748"}, {"name": "Algeria", "iso2": "DZ", "iso3": "DZA", "isoNumeric": "12", "phoneCode": "213", "continent": "Asia", "capital": "Algiers", "currency": "Dinar", "area": "2381740"}, {"name": "American Samoa", "iso2": "AS", "iso3": "ASM", "isoNumeric": "16", "phoneCode": "1-684", "continent": "Australia", "capital": "Pago Pago", "currency": "Dollar", "area": "199"}, {"name": "Andorra", "iso2": "AD", "iso3": "AND", "isoNumeric": "20", "phoneCode": "376", "continent": "Europe", "capital": "Andorra la Vella", "currency": "Euro", "area": "468"}, {"name": "Angola", "iso2": "AO", "iso3": "AGO", "isoNumeric": "24", "phoneCode": "244", "continent": "Africa", "capital": "Luanda", "currency": "Kwanza", "area": "1246700"}, {"name": "Anguilla", "iso2": "AI", "iso3": "AIA", "isoNumeric": "660", "phoneCode": "1-264", "continent": "North America", "capital": "The Valley", "currency": "Dollar", "area": "102"}, {"name": "Antarctica", "iso2": "AQ", "iso3": "ATA", "isoNumeric": "10", "phoneCode": "672", "continent": "Antarctica", "capital": "", "currency": "", "area": "14000000"}, {"name": "Antigua and Barbuda", "iso2": "AG", "iso3": "ATG", "isoNumeric": "28", "phoneCode": "1-268", "continent": "North America", "capital": "St. John's", "currency": "Dollar", "area": "443"}, {"name": "Argentina", "iso2": "AR", "iso3": "ARG", "isoNumeric": "32", "phoneCode": "54", "continent": "South America", "capital": "Buenos Aires", "currency": "Peso", "area": "2766890"}, {"name": "Armenia", "iso2": "AM", "iso3": "ARM", "isoNumeric": "51", "phoneCode": "374", "continent": "Asia", "capital": "Yerevan", "currency": "Dram", "area": "29800"}, {"name": "Aruba", "iso2": "AW", "iso3": "ABW", "isoNumeric": "533", "phoneCode": "297", "continent": "South America", "capital": "Oranjestad", "currency": "Guilder", "area": "193"}, {"name": "Australia", "iso2": "AU", "iso3": "AUS", "isoNumeric": "36", "phoneCode": "61", "continent": "Australia", "capital": "Canberra", "currency": "Dollar", "area": "7686850"}, {"name": "Austria", "iso2": "AT", "iso3": "AUT", "isoNumeric": "40", "phoneCode": "43", "continent": "Europe", "capital": "Vienna", "currency": "Euro", "area": "83858"}, {"name": "Azerbaijan", "iso2": "AZ", "iso3": "AZE", "isoNumeric": "31", "phoneCode": "994", "continent": "Asia", "capital": "Baku", "currency": "Manat", "area": "86600"}, {"name": "Bahamas", "iso2": "BS", "iso3": "BHS", "isoNumeric": "44", "phoneCode": "1-242", "continent": "North America", "capital": "Nassau", "currency": "Dollar", "area": "13940"}, {"name": "Bahrain", "iso2": "BH", "iso3": "BHR", "isoNumeric": "48", "phoneCode": "973", "continent": "Asia", "capital": "Manama", "currency": "Dinar", "area": "665"}, {"name": "Bangladesh", "iso2": "BD", "iso3": "BGD", "isoNumeric": "50", "phoneCode": "880", "continent": "Asia", "capital": "Dhaka", "currency": "Taka", "area": "144000"}, {"name": "Barbados", "iso2": "BB", "iso3": "BRB", "isoNumeric": "52", "phoneCode": "1-246", "continent": "North America", "capital": "Bridgetown", "currency": "Dollar", "area": "431"}, {"name": "Belarus", "iso2": "BY", "iso3": "BLR", "isoNumeric": "112", "phoneCode": "375", "continent": "Europe", "capital": "Minsk", "currency": "Ruble", "area": "207600"}, {"name": "Belgium", "iso2": "BE", "iso3": "BEL", "isoNumeric": "56", "phoneCode": "32", "continent": "Europe", "capital": "Brussels", "currency": "Euro", "area": "30510"}, {"name": "Belize", "iso2": "BZ", "iso3": "BLZ", "isoNumeric": "84", "phoneCode": "501", "continent": "North America", "capital": "Belmopan", "currency": "Dollar", "area": "22966"}, {"name": "Benin", "iso2": "BJ", "iso3": "BEN", "isoNumeric": "204", "phoneCode": "229", "continent": "Africa", "capital": "Porto-Novo", "currency": "Franc", "area": "112620"}, {"name": "Bermuda", "iso2": "BM", "iso3": "BMU", "isoNumeric": "60", "phoneCode": "1-441", "continent": "North America", "capital": "Hamilton", "currency": "Dollar", "area": "53"}, {"name": "Bhutan", "iso2": "BT", "iso3": "BTN", "isoNumeric": "64", "phoneCode": "975", "continent": "Asia", "capital": "Thimphu", "currency": "Ngultrum", "area": "47000"}, {"name": "Bolivia", "iso2": "BO", "iso3": "BOL", "isoNumeric": "68", "phoneCode": "591", "continent": "South America", "capital": "Sucre", "currency": "Boliviano", "area": "1098580"}, {"name": "Bosnia and Herzegovina", "iso2": "BA", "iso3": "BIH", "isoNumeric": "70", "phoneCode": "387", "continent": "Europe", "capital": "Sarajevo", "currency": "Marka", "area": "51129"}, {"name": "Botswana", "iso2": "BW", "iso3": "BWA", "isoNumeric": "72", "phoneCode": "267", "continent": "Africa", "capital": "Gaborone", "currency": "Pula", "area": "600370"}, {"name": "Brazil", "iso2": "BR", "iso3": "BRA", "isoNumeric": "76", "phoneCode": "55", "continent": "South America", "capital": "Brasilia", "currency": "Real", "area": "8511965"}, {"name": "British Indian Ocean Territory", "iso2": "IO", "iso3": "IOT", "isoNumeric": "86", "phoneCode": "246", "continent": "Asia", "capital": "Diego Garcia", "currency": "Dollar", "area": "60"}, {"name": "British Virgin Islands", "iso2": "VG", "iso3": "VGB", "isoNumeric": "92", "phoneCode": "1-284", "continent": "North America", "capital": "Road Town", "currency": "Dollar", "area": "153"}, {"name": "Brunei", "iso2": "BN", "iso3": "BRN", "isoNumeric": "96", "phoneCode": "673", "continent": "Asia", "capital": "Bandar Seri Begawan", "currency": "Dollar", "area": "5770"}, {"name": "Bulgaria", "iso2": "BG", "iso3": "BGR", "isoNumeric": "100", "phoneCode": "359", "continent": "Europe", "capital": "Sofia", "currency": "Lev", "area": "110910"}, {"name": "Burkina Faso", "iso2": "BF", "iso3": "BFA", "isoNumeric": "854", "phoneCode": "226", "continent": "Africa", "capital": "Ouagadougou", "currency": "Franc", "area": "274200"}, {"name": "Burundi", "iso2": "BI", "iso3": "BDI", "isoNumeric": "108", "phoneCode": "257", "continent": "Africa", "capital": "Bujumbura", "currency": "Franc", "area": "27830"}, {"name": "Cambodia", "iso2": "KH", "iso3": "KHM", "isoNumeric": "116", "phoneCode": "855", "continent": "Asia", "capital": "Phnom Penh", "currency": "Riels", "area": "181040"}, {"name": "Cameroon", "iso2": "CM", "iso3": "CMR", "isoNumeric": "120", "phoneCode": "237", "continent": "Africa", "capital": "Yaounde", "currency": "Franc", "area": "475440"}, {"name": "Canada", "iso2": "CA", "iso3": "CAN", "isoNumeric": "124", "phoneCode": "1", "continent": "North America", "capital": "Ottawa", "currency": "Dollar", "area": "9984670"}, {"name": "Cape Verde", "iso2": "CV", "iso3": "CPV", "isoNumeric": "132", "phoneCode": "238", "continent": "Africa", "capital": "Praia", "currency": "Escudo", "area": "4033"}, {"name": "Cayman Islands", "iso2": "KY", "iso3": "CYM", "isoNumeric": "136", "phoneCode": "1-345", "continent": "North America", "capital": "George Town", "currency": "Dollar", "area": "262"}, {"name": "Central African Republic", "iso2": "CF", "iso3": "CAF", "isoNumeric": "140", "phoneCode": "236", "continent": "Africa", "capital": "Bangui", "currency": "Franc", "area": "622984"}, {"name": "Chad", "iso2": "TD", "iso3": "TCD", "isoNumeric": "148", "phoneCode": "235", "continent": "Africa", "capital": "N'Djamena", "currency": "Franc", "area": "1284000"}, {"name": "Chile", "iso2": "CL", "iso3": "CHL", "isoNumeric": "152", "phoneCode": "56", "continent": "South America", "capital": "Santiago", "currency": "Peso", "area": "756950"}, {"name": "China", "iso2": "CN", "iso3": "CHN", "isoNumeric": "156", "phoneCode": "86", "continent": "Asia", "capital": "Beijing", "currency": "Yuan Renminbi", "area": "9596960"}, {"name": "Christmas Island", "iso2": "CX", "iso3": "CXR", "isoNumeric": "162", "phoneCode": "61", "continent": "Asia", "capital": "Flying Fish Cove", "currency": "Dollar", "area": "135"}, {"name": "Cocos (Keeling) Islands", "iso2": "CC", "iso3": "CCK", "isoNumeric": "166", "phoneCode": "61", "continent": "Asia", "capital": "West Island", "currency": "Dollar", "area": "14"}, {"name": "Colombia", "iso2": "CO", "iso3": "COL", "isoNumeric": "170", "phoneCode": "57", "continent": "South America", "capital": "Bogota", "currency": "Peso", "area": "1138910"}, {"name": "Comoros", "iso2": "KM", "iso3": "COM", "isoNumeric": "174", "phoneCode": "269", "continent": "Africa", "capital": "Moroni", "currency": "Franc", "area": "2170"}, {"name": "Cook Islands", "iso2": "CK", "iso3": "COK", "isoNumeric": "184", "phoneCode": "682", "continent": "Australia", "capital": "Avarua", "currency": "Dollar", "area": "240"}, {"name": "Costa Rica", "iso2": "CR", "iso3": "CRI", "isoNumeric": "188", "phoneCode": "506", "continent": "North America", "capital": "San Jose", "currency": "Colon", "area": "51100"}, {"name": "Croatia", "iso2": "HR", "iso3": "HRV", "isoNumeric": "191", "phoneCode": "385", "continent": "Europe", "capital": "Zagreb", "currency": "Kuna", "area": "56542"}, {"name": "Cuba", "iso2": "CU", "iso3": "CUB", "isoNumeric": "192", "phoneCode": "53", "continent": "North America", "capital": "Havana", "currency": "Peso", "area": "110860"}, {"name": "Curacao", "iso2": "CW", "iso3": "CUW", "isoNumeric": "531", "phoneCode": "599", "continent": "South America", "capital": "Willemstad", "currency": "Guilder", "area": "444"}, {"name": "Cyprus", "iso2": "CY", "iso3": "CYP", "isoNumeric": "196", "phoneCode": "357", "continent": "Europe", "capital": "Nicosia", "currency": "Euro", "area": "9250"}, {"name": "Czech Republic", "iso2": "CZ", "iso3": "CZE", "isoNumeric": "203", "phoneCode": "420", "continent": "Europe", "capital": "Prague", "currency": "Koruna", "area": "78866"}, {"name": "Congo (Kinshasa)", "iso2": "CD", "iso3": "COD", "isoNumeric": "180", "phoneCode": "243", "continent": "Africa", "capital": "Kinshasa", "currency": "Franc", "area": "2345410"}, {"name": "Denmark", "iso2": "DK", "iso3": "DNK", "isoNumeric": "208", "phoneCode": "45", "continent": "Europe", "capital": "Copenhagen", "currency": "Krone", "area": "43094"}, {"name": "Djibouti", "iso2": "DJ", "iso3": "DJI", "isoNumeric": "262", "phoneCode": "253", "continent": "Africa", "capital": "Djibouti", "currency": "Franc", "area": "23000"}, {"name": "Dominica", "iso2": "DM", "iso3": "DMA", "isoNumeric": "212", "phoneCode": "1-767", "continent": "North America", "capital": "Roseau", "currency": "Dollar", "area": "754"}, {"name": "Dominican Republic", "iso2": "DO", "iso3": "DOM", "isoNumeric": "214", "phoneCode": "\"1-809", "continent": "Dominican Republic", "capital": " 1-849\"", "currency": "Santo Domingo", "area": "America/Santo_Domingo"}, {"name": "Timor-Leste", "iso2": "TL", "iso3": "TLS", "isoNumeric": "626", "phoneCode": "670", "continent": "Asia", "capital": "Dili", "currency": "Dollar", "area": "15007"}, {"name": "Ecuador", "iso2": "EC", "iso3": "ECU", "isoNumeric": "218", "phoneCode": "593", "continent": "South America", "capital": "Quito", "currency": "Dollar", "area": "283560"}, {"name": "Egypt", "iso2": "EG", "iso3": "EGY", "isoNumeric": "818", "phoneCode": "20", "continent": "Africa", "capital": "Cairo", "currency": "Pound", "area": "1001450"}, {"name": "El Salvador", "iso2": "SV", "iso3": "SLV", "isoNumeric": "222", "phoneCode": "503", "continent": "North America", "capital": "San Salvador", "currency": "Dollar", "area": "21040"}, {"name": "Equatorial Guinea", "iso2": "GQ", "iso3": "GNQ", "isoNumeric": "226", "phoneCode": "240", "continent": "Africa", "capital": "Malabo", "currency": "Franc", "area": "28051"}, {"name": "Eritrea", "iso2": "ER", "iso3": "ERI", "isoNumeric": "232", "phoneCode": "291", "continent": "Africa", "capital": "Asmara", "currency": "Nakfa", "area": "121320"}, {"name": "Estonia", "iso2": "EE", "iso3": "EST", "isoNumeric": "233", "phoneCode": "372", "continent": "Africa", "capital": "Tallinn", "currency": "Euro", "area": "45226"}, {"name": "Ethiopia", "iso2": "ET", "iso3": "ETH", "isoNumeric": "231", "phoneCode": "251", "continent": "Africa", "capital": "Addis Ababa", "currency": "Birr", "area": "1127127"}, {"name": "Falkland Islands", "iso2": "FK", "iso3": "FLK", "isoNumeric": "238", "phoneCode": "500", "continent": "South America", "capital": "Stanley", "currency": "Pound", "area": "12173"}, {"name": "Faroe Islands", "iso2": "FO", "iso3": "FRO", "isoNumeric": "234", "phoneCode": "298", "continent": "Europe", "capital": "Torshavn", "currency": "Krone", "area": "1399"}, {"name": "Fiji", "iso2": "FJ", "iso3": "FJI", "isoNumeric": "242", "phoneCode": "679", "continent": "Australia", "capital": "Suva", "currency": "Dollar", "area": "18270"}, {"name": "Finland", "iso2": "FI", "iso3": "FIN", "isoNumeric": "246", "phoneCode": "358", "continent": "Europe", "capital": "Helsinki", "currency": "Euro", "area": "337030"}, {"name": "France", "iso2": "FR", "iso3": "FRA", "isoNumeric": "250", "phoneCode": "33", "continent": "Europe", "capital": "Paris", "currency": "Euro", "area": "547030"}, {"name": "French Polynesia", "iso2": "PF", "iso3": "PYF", "isoNumeric": "258", "phoneCode": "689", "continent": "Australia", "capital": "Papeete", "currency": "Franc", "area": "4167"}, {"name": "Gabon", "iso2": "GA", "iso3": "GAB", "isoNumeric": "266", "phoneCode": "241", "continent": "Africa", "capital": "Libreville", "currency": "Franc", "area": "267667"}, {"name": "Gambia", "iso2": "GM", "iso3": "GMB", "isoNumeric": "270", "phoneCode": "220", "continent": "Africa", "capital": "Banjul", "currency": "Dalasi", "area": "11300"}, {"name": "Georgia", "iso2": "GE", "iso3": "GEO", "isoNumeric": "268", "phoneCode": "995", "continent": "North America", "capital": "Tbilisi", "currency": "Lari", "area": "69700"}, {"name": "Germany", "iso2": "DE", "iso3": "DEU", "isoNumeric": "276", "phoneCode": "49", "continent": "Europe", "capital": "Berlin", "currency": "Euro", "area": "357021"}, {"name": "Ghana", "iso2": "GH", "iso3": "GHA", "isoNumeric": "288", "phoneCode": "233", "continent": "Africa", "capital": "Accra", "currency": "Cedi", "area": "239460"}, {"name": "Gibraltar", "iso2": "GI", "iso3": "GIB", "isoNumeric": "292", "phoneCode": "350", "continent": "Europe", "capital": "Gibraltar", "currency": "Pound", "area": "7"}, {"name": "Greece", "iso2": "GR", "iso3": "GRC", "isoNumeric": "300", "phoneCode": "30", "continent": "Europe", "capital": "Athens", "currency": "Euro", "area": "131940"}, {"name": "Greenland", "iso2": "GL", "iso3": "GRL", "isoNumeric": "304", "phoneCode": "299", "continent": "Arctic", "capital": "Nuuk", "currency": "Krone", "area": "2166086"}, {"name": "Grenada", "iso2": "GD", "iso3": "GRD", "isoNumeric": "308", "phoneCode": "1-473", "continent": "North America", "capital": "St. George's", "currency": "Dollar", "area": "344"}, {"name": "Guam", "iso2": "GU", "iso3": "GUM", "isoNumeric": "316", "phoneCode": "1-671", "continent": "Australia", "capital": "Hagatna", "currency": "Dollar", "area": "549"}, {"name": "Guatemala", "iso2": "GT", "iso3": "GTM", "isoNumeric": "320", "phoneCode": "502", "continent": "North America", "capital": "Guatemala City", "currency": "Quetzal", "area": "108890"}, {"name": "Guernsey", "iso2": "GG", "iso3": "GGY", "isoNumeric": "831", "phoneCode": "44-1481", "continent": "Europe", "capital": "St Peter Port", "currency": "Pound", "area": "78"}, {"name": "Guinea", "iso2": "GN", "iso3": "GIN", "isoNumeric": "324", "phoneCode": "224", "continent": "Africa", "capital": "Conakry", "currency": "Franc", "area": "245857"}, {"name": "Guinea-Bissau", "iso2": "GW", "iso3": "GNB", "isoNumeric": "624", "phoneCode": "245", "continent": "Africa", "capital": "Bissau", "currency": "Franc", "area": "36120"}, {"name": "Guyana", "iso2": "GY", "iso3": "GUY", "isoNumeric": "328", "phoneCode": "592", "continent": "South America", "capital": "Georgetown", "currency": "Dollar", "area": "214970"}, {"name": "Haiti", "iso2": "HT", "iso3": "HTI", "isoNumeric": "332", "phoneCode": "509", "continent": "North America", "capital": "Port-au-Prince", "currency": "Gourde", "area": "27750"}, {"name": "Honduras", "iso2": "HN", "iso3": "HND", "isoNumeric": "340", "phoneCode": "504", "continent": "North America", "capital": "Tegucigalpa", "currency": "Lempira", "area": "112090"}, {"name": "Hong Kong SAR", "iso2": "HK", "iso3": "HKG", "isoNumeric": "344", "phoneCode": "852", "continent": "Asia", "capital": "Hong Kong", "currency": "Dollar", "area": "1092"}, {"name": "Hungary", "iso2": "HU", "iso3": "HUN", "isoNumeric": "348", "phoneCode": "36", "continent": "Europe", "capital": "Budapest", "currency": "Forint", "area": "93030"}, {"name": "Iceland", "iso2": "IS", "iso3": "ISL", "isoNumeric": "352", "phoneCode": "354", "continent": "Europe", "capital": "Reykjavik", "currency": "Krona", "area": "103000"}, {"name": "India", "iso2": "IN", "iso3": "IND", "isoNumeric": "356", "phoneCode": "91", "continent": "Asia", "capital": "New Delhi", "currency": "Rupee", "area": "3287590"}, {"name": "Indonesia", "iso2": "ID", "iso3": "IDN", "isoNumeric": "360", "phoneCode": "62", "continent": "Asia", "capital": "Jakarta", "currency": "Rupiah", "area": "1919440"}, {"name": "Iran", "iso2": "IR", "iso3": "IRN", "isoNumeric": "364", "phoneCode": "98", "continent": "Asia", "capital": "Tehran", "currency": "Rial", "area": "1648000"}, {"name": "Iraq", "iso2": "IQ", "iso3": "IRQ", "isoNumeric": "368", "phoneCode": "964", "continent": "Asia", "capital": "Baghdad", "currency": "Dinar", "area": "437072"}, {"name": "Ireland", "iso2": "IE", "iso3": "IRL", "isoNumeric": "372", "phoneCode": "353", "continent": "Europe", "capital": "Dublin", "currency": "Euro", "area": "70280"}, {"name": "Isle of Man", "iso2": "IM", "iso3": "IMN", "isoNumeric": "833", "phoneCode": "44-1624", "continent": "Europe", "capital": "\"Douglas", "currency": "Europe/London", "area": "Pound"}, {"name": "Israel", "iso2": "IL", "iso3": "ISR", "isoNumeric": "376", "phoneCode": "972", "continent": "Asia", "capital": "Jerusalem", "currency": "Shekel", "area": "20770"}, {"name": "Italy", "iso2": "IT", "iso3": "ITA", "isoNumeric": "380", "phoneCode": "39", "continent": "Europe", "capital": "Rome", "currency": "Euro", "area": "301230"}, {"name": "Ivory Coast", "iso2": "CI", "iso3": "CIV", "isoNumeric": "384", "phoneCode": "225", "continent": "Africa", "capital": "Yamoussoukro", "currency": "Franc", "area": "322460"}, {"name": "Jamaica", "iso2": "JM", "iso3": "JAM", "isoNumeric": "388", "phoneCode": "1-876", "continent": "North America", "capital": "Kingston", "currency": "Dollar", "area": "10991"}, {"name": "Japan", "iso2": "JP", "iso3": "JPN", "isoNumeric": "392", "phoneCode": "81", "continent": "Asia", "capital": "Tokyo", "currency": "Yen", "area": "377835"}, {"name": "Jersey", "iso2": "JE", "iso3": "JEY", "isoNumeric": "832", "phoneCode": "44-1534", "continent": "North America", "capital": "Saint Helier", "currency": "Pound", "area": "116"}, {"name": "Jordan", "iso2": "JO", "iso3": "JOR", "isoNumeric": "400", "phoneCode": "962", "continent": "Asia", "capital": "Amman", "currency": "Dinar", "area": "92300"}, {"name": "Kazakhstan", "iso2": "KZ", "iso3": "KAZ", "isoNumeric": "398", "phoneCode": "7", "continent": "Asia", "capital": "Astana", "currency": "Tenge", "area": "2717300"}, {"name": "Kenya", "iso2": "KE", "iso3": "KEN", "isoNumeric": "404", "phoneCode": "254", "continent": "Africa", "capital": "Nairobi", "currency": "Shilling", "area": "582650"}, {"name": "Kiribati", "iso2": "KI", "iso3": "KIR", "isoNumeric": "296", "phoneCode": "686", "continent": "Australia", "capital": "Tarawa", "currency": "Dollar", "area": "811"}, {"name": "Kosovo", "iso2": "XK", "iso3": "XKX", "isoNumeric": "0", "phoneCode": "383", "continent": "Europe", "capital": "Pristina", "currency": "Euro", "area": "10887"}, {"name": "Kuwait", "iso2": "KW", "iso3": "KWT", "isoNumeric": "414", "phoneCode": "965", "continent": "Asia", "capital": "Kuwait City", "currency": "Dinar", "area": "17820"}, {"name": "Kyrgyzstan", "iso2": "KG", "iso3": "KGZ", "isoNumeric": "417", "phoneCode": "996", "continent": "Asia", "capital": "Bishkek", "currency": "Som", "area": "198500"}, {"name": "Laos", "iso2": "LA", "iso3": "LAO", "isoNumeric": "418", "phoneCode": "856", "continent": "Asia", "capital": "Vientiane", "currency": "Kip", "area": "236800"}, {"name": "Latvia", "iso2": "LV", "iso3": "LVA", "isoNumeric": "428", "phoneCode": "371", "continent": "Europe", "capital": "Riga", "currency": "Euro", "area": "64589"}, {"name": "Lebanon", "iso2": "LB", "iso3": "LBN", "isoNumeric": "422", "phoneCode": "961", "continent": "Asia", "capital": "Beirut", "currency": "Pound", "area": "10400"}, {"name": "Lesotho", "iso2": "LS", "iso3": "LSO", "isoNumeric": "426", "phoneCode": "266", "continent": "Africa", "capital": "Maseru", "currency": "Loti", "area": "30355"}, {"name": "Liberia", "iso2": "LR", "iso3": "LBR", "isoNumeric": "430", "phoneCode": "231", "continent": "Africa", "capital": "Monrovia", "currency": "Dollar", "area": "111370"}, {"name": "Libya", "iso2": "LY", "iso3": "LBY", "isoNumeric": "434", "phoneCode": "218", "continent": "Asia", "capital": "Tripolis", "currency": "Dinar", "area": "1759540"}, {"name": "Liechtenstein", "iso2": "LI", "iso3": "LIE", "isoNumeric": "438", "phoneCode": "423", "continent": "Europe", "capital": "Vaduz", "currency": "Franc", "area": "160"}, {"name": "Lithuania", "iso2": "LT", "iso3": "LTU", "isoNumeric": "440", "phoneCode": "370", "continent": "Europe", "capital": "Vilnius", "currency": "Euro", "area": "65200"}, {"name": "Luxembourg", "iso2": "LU", "iso3": "LUX", "isoNumeric": "442", "phoneCode": "352", "continent": "Europe", "capital": "Luxembourg", "currency": "Euro", "area": "2586"}, {"name": "Macau SAR", "iso2": "MO", "iso3": "MAC", "isoNumeric": "446", "phoneCode": "853", "continent": "Asia", "capital": "Macao", "currency": "Pataca", "area": "254"}, {"name": "North Macedonia", "iso2": "MK", "iso3": "MKD", "isoNumeric": "807", "phoneCode": "389", "continent": "Europe", "capital": "Skopje", "currency": "Denar", "area": "25333"}, {"name": "Madagascar", "iso2": "MG", "iso3": "MDG", "isoNumeric": "450", "phoneCode": "261", "continent": "Africa", "capital": "Antananarivo", "currency": "Ariary", "area": "587040"}, {"name": "Malawi", "iso2": "MW", "iso3": "MWI", "isoNumeric": "454", "phoneCode": "265", "continent": "Africa", "capital": "Lilongwe", "currency": "Kwacha", "area": "118480"}, {"name": "Malaysia", "iso2": "MY", "iso3": "MYS", "isoNumeric": "458", "phoneCode": "60", "continent": "Asia", "capital": "Kuala Lumpur", "currency": "Ringgit", "area": "329750"}, {"name": "Maldives", "iso2": "MV", "iso3": "MDV", "isoNumeric": "462", "phoneCode": "960", "continent": "Asia", "capital": "Male", "currency": "Rufiyaa", "area": "300"}, {"name": "Mali", "iso2": "ML", "iso3": "MLI", "isoNumeric": "466", "phoneCode": "223", "continent": "Africa", "capital": "Bamako", "currency": "Franc", "area": "1240000"}, {"name": "Malta", "iso2": "MT", "iso3": "MLT", "isoNumeric": "470", "phoneCode": "356", "continent": "Europe", "capital": "Valletta", "currency": "Euro", "area": "316"}, {"name": "Marshall Islands", "iso2": "MH", "iso3": "MHL", "isoNumeric": "584", "phoneCode": "692", "continent": "Australia", "capital": "Majuro", "currency": "Dollar", "area": "181"}, {"name": "Mauritania", "iso2": "MR", "iso3": "MRT", "isoNumeric": "478", "phoneCode": "222", "continent": "Africa", "capital": "Nouakchott", "currency": "Ouguiya", "area": "1030700"}, {"name": "Mauritius", "iso2": "MU", "iso3": "MUS", "isoNumeric": "480", "phoneCode": "230", "continent": "Africa", "capital": "Port Louis", "currency": "Rupee", "area": "2040"}, {"name": "Mayotte", "iso2": "YT", "iso3": "MYT", "isoNumeric": "175", "phoneCode": "262", "continent": "Africa", "capital": "Mamoudzou", "currency": "Euro", "area": "374"}, {"name": "Mexico", "iso2": "MX", "iso3": "MEX", "isoNumeric": "484", "phoneCode": "52", "continent": "North America", "capital": "Mexico City", "currency": "Peso", "area": "1972550"}, {"name": "Micronesia", "iso2": "FM", "iso3": "FSM", "isoNumeric": "583", "phoneCode": "691", "continent": "Australia", "capital": "Palikir", "currency": "Dollar", "area": "702"}, {"name": "Moldova", "iso2": "MD", "iso3": "MDA", "isoNumeric": "498", "phoneCode": "373", "continent": "Europe", "capital": "Chisinau", "currency": "Leu", "area": "33843"}, {"name": "Monaco", "iso2": "MC", "iso3": "MCO", "isoNumeric": "492", "phoneCode": "377", "continent": "Europe", "capital": "Monaco", "currency": "Euro", "area": "2"}, {"name": "Mongolia", "iso2": "MN", "iso3": "MNG", "isoNumeric": "496", "phoneCode": "976", "continent": "Asia", "capital": "Ulan Bator", "currency": "Tugrik", "area": "1565000"}, {"name": "Montenegro", "iso2": "ME", "iso3": "MNE", "isoNumeric": "499", "phoneCode": "382", "continent": "Europe", "capital": "Podgorica", "currency": "Euro", "area": "14026"}, {"name": "Montserrat", "iso2": "MS", "iso3": "MSR", "isoNumeric": "500", "phoneCode": "1-664", "continent": "North America", "capital": "Plymouth", "currency": "Dollar", "area": "102"}, {"name": "Morocco", "iso2": "MA", "iso3": "MAR", "isoNumeric": "504", "phoneCode": "212", "continent": "Africa", "capital": "Rabat", "currency": "Dirham", "area": "446550"}, {"name": "Mozambique", "iso2": "MZ", "iso3": "MOZ", "isoNumeric": "508", "phoneCode": "258", "continent": "Africa", "capital": "Maputo", "currency": "Metical", "area": "801590"}, {"name": "Myanmar", "iso2": "MM", "iso3": "MMR", "isoNumeric": "104", "phoneCode": "95", "continent": "Asia", "capital": "Nay Pyi Taw", "currency": "Kyat", "area": "678500"}, {"name": "Namibia", "iso2": "NA", "iso3": "NAM", "isoNumeric": "516", "phoneCode": "264", "continent": "Africa", "capital": "Windhoek", "currency": "Dollar", "area": "825418"}, {"name": "Nauru", "iso2": "NR", "iso3": "NRU", "isoNumeric": "520", "phoneCode": "674", "continent": "Australia", "capital": "Yaren", "currency": "Dollar", "area": "21"}, {"name": "Nepal", "iso2": "NP", "iso3": "NPL", "isoNumeric": "524", "phoneCode": "977", "continent": "Asia", "capital": "Kathmandu", "currency": "Rupee", "area": "140800"}, {"name": "Netherlands", "iso2": "NL", "iso3": "NLD", "isoNumeric": "528", "phoneCode": "31", "continent": "Europe", "capital": "Amsterdam", "currency": "Euro", "area": "41526"}, {"name": "Netherlands Antilles", "iso2": "AN", "iso3": "ANT", "isoNumeric": "530", "phoneCode": "599", "continent": "North America", "capital": "Willemstad", "currency": "Guilder", "area": "960"}, {"name": "New Caledonia", "iso2": "NC", "iso3": "NCL", "isoNumeric": "540", "phoneCode": "687", "continent": "Australia", "capital": "Noumea", "currency": "Franc", "area": "19060"}, {"name": "New Zealand", "iso2": "NZ", "iso3": "NZL", "isoNumeric": "554", "phoneCode": "64", "continent": "Australia", "capital": "Wellington", "currency": "Dollar", "area": "268680"}, {"name": "Nicaragua", "iso2": "NI", "iso3": "NIC", "isoNumeric": "558", "phoneCode": "505", "continent": "North America", "capital": "Managua", "currency": "Cordoba", "area": "129494"}, {"name": "Niger", "iso2": "NE", "iso3": "NER", "isoNumeric": "562", "phoneCode": "227", "continent": "Africa", "capital": "Niamey", "currency": "Franc", "area": "1267000"}, {"name": "Nigeria", "iso2": "NG", "iso3": "NGA", "isoNumeric": "566", "phoneCode": "234", "continent": "Africa", "capital": "Abuja", "currency": "Naira", "area": "923768"}, {"name": "Niue", "iso2": "NU", "iso3": "NIU", "isoNumeric": "570", "phoneCode": "683", "continent": "Australia", "capital": "Alofi", "currency": "Dollar", "area": "260"}, {"name": "North Korea", "iso2": "KP", "iso3": "PRK", "isoNumeric": "408", "phoneCode": "850", "continent": "Asia", "capital": "Pyongyang", "currency": "Won", "area": "120540"}, {"name": "Northern Mariana Islands", "iso2": "MP", "iso3": "MNP", "isoNumeric": "580", "phoneCode": "1-670", "continent": "Asia", "capital": "Saipan", "currency": "Dollar", "area": "477"}, {"name": "Norway", "iso2": "NO", "iso3": "NOR", "isoNumeric": "578", "phoneCode": "47", "continent": "Europe", "capital": "Oslo", "currency": "Krone", "area": "324220"}, {"name": "Oman", "iso2": "OM", "iso3": "OMN", "isoNumeric": "512", "phoneCode": "968", "continent": "Asia", "capital": "Muscat", "currency": "Rial", "area": "212460"}, {"name": "Pakistan", "iso2": "PK", "iso3": "PAK", "isoNumeric": "586", "phoneCode": "92", "continent": "Asia", "capital": "Islamabad", "currency": "Rupee", "area": "803940"}, {"name": "Palau", "iso2": "PW", "iso3": "PLW", "isoNumeric": "585", "phoneCode": "680", "continent": "Asia", "capital": "Melekeok", "currency": "Dollar", "area": "458"}, {"name": "Palestinian Territory", "iso2": "PS", "iso3": "PSE", "isoNumeric": "275", "phoneCode": "970", "continent": "Asia", "capital": "East Jerusalem", "currency": "Shekel", "area": "5970"}, {"name": "Panama", "iso2": "PA", "iso3": "PAN", "isoNumeric": "591", "phoneCode": "507", "continent": "North America", "capital": "Panama City", "currency": "Balboa", "area": "78200"}, {"name": "Papua New Guinea", "iso2": "PG", "iso3": "PNG", "isoNumeric": "598", "phoneCode": "675", "continent": "Australia", "capital": "Port Moresby", "currency": "Kina", "area": "462840"}, {"name": "Paraguay", "iso2": "PY", "iso3": "PRY", "isoNumeric": "600", "phoneCode": "595", "continent": "South America", "capital": "Asuncion", "currency": "Guarani", "area": "406750"}, {"name": "Peru", "iso2": "PE", "iso3": "PER", "isoNumeric": "604", "phoneCode": "51", "continent": "South America", "capital": "Lima", "currency": "Sol", "area": "1285220"}, {"name": "Philippines", "iso2": "PH", "iso3": "PHL", "isoNumeric": "608", "phoneCode": "63", "continent": "Asia", "capital": "Manila", "currency": "Peso", "area": "300000"}, {"name": "Pitcairn", "iso2": "PN", "iso3": "PCN", "isoNumeric": "612", "phoneCode": "64", "continent": "South America", "capital": "Adamstown", "currency": "Dollar", "area": "47"}, {"name": "Poland", "iso2": "PL", "iso3": "POL", "isoNumeric": "616", "phoneCode": "48", "continent": "Europe", "capital": "Warsaw", "currency": "Zloty", "area": "312685"}, {"name": "Portugal", "iso2": "PT", "iso3": "PRT", "isoNumeric": "620", "phoneCode": "351", "continent": "Europe", "capital": "Lisbon", "currency": "Euro", "area": "92391"}, {"name": "Puerto Rico", "iso2": "PR", "iso3": "PRI", "isoNumeric": "630", "phoneCode": "\"1-787", "continent": "North America", "capital": "North America", "currency": "America/Puerto_Rico", "area": "Dollar"}, {"name": "Qatar", "iso2": "QA", "iso3": "QAT", "isoNumeric": "634", "phoneCode": "974", "continent": "Asia", "capital": "Doha", "currency": "Rial", "area": "11437"}, {"name": "Congo (Brazzaville)", "iso2": "CG", "iso3": "COG", "isoNumeric": "178", "phoneCode": "242", "continent": "Africa", "capital": "Brazzaville", "currency": "Franc", "area": "342000"}, {"name": "Reunion", "iso2": "RE", "iso3": "REU", "isoNumeric": "638", "phoneCode": "262", "continent": "Africa", "capital": "Saint-Denis", "currency": "Euro", "area": "2517"}, {"name": "Romania", "iso2": "RO", "iso3": "ROU", "isoNumeric": "642", "phoneCode": "40", "continent": "Europe", "capital": "Bucharest", "currency": "Leu", "area": "237500"}, {"name": "Russia", "iso2": "RU", "iso3": "RUS", "isoNumeric": "643", "phoneCode": "7", "continent": "Europe", "capital": "Moscow", "currency": "Ruble", "area": "17100000"}, {"name": "Rwanda", "iso2": "RW", "iso3": "RWA", "isoNumeric": "646", "phoneCode": "250", "continent": "Africa", "capital": "Kigali", "currency": "Franc", "area": "26338"}, {"name": "Saint Barthelemy", "iso2": "BL", "iso3": "BLM", "isoNumeric": "652", "phoneCode": "590", "continent": "North America", "capital": "Gustavia", "currency": "Euro", "area": "21"}, {"name": "Saint Helena", "iso2": "SH", "iso3": "SHN", "isoNumeric": "654", "phoneCode": "290", "continent": "Africa", "capital": "Jamestown", "currency": "Pound", "area": "410"}, {"name": "Saint Kitts and Nevis", "iso2": "KN", "iso3": "KNA", "isoNumeric": "659", "phoneCode": "1-869", "continent": "North America", "capital": "Basseterre", "currency": "Dollar", "area": "261"}, {"name": "Saint Lucia", "iso2": "LC", "iso3": "LCA", "isoNumeric": "662", "phoneCode": "1-758", "continent": "North America", "capital": "Castries", "currency": "Dollar", "area": "616"}, {"name": "Saint Martin (French part)", "iso2": "MF", "iso3": "MAF", "isoNumeric": "663", "phoneCode": "590", "continent": "North America", "capital": "Marigot", "currency": "Euro", "area": "53"}, {"name": "Saint Pierre and Miquelon", "iso2": "PM", "iso3": "SPM", "isoNumeric": "666", "phoneCode": "508", "continent": "North America", "capital": "Saint-Pierre", "currency": "Euro", "area": "242"}, {"name": "Saint Vincent and the Grenadines", "iso2": "VC", "iso3": "VCT", "isoNumeric": "670", "phoneCode": "1-784", "continent": "North America", "capital": "Kingstown", "currency": "Dollar", "area": "389"}, {"name": "Samoa", "iso2": "WS", "iso3": "WSM", "isoNumeric": "882", "phoneCode": "685", "continent": "Australia", "capital": "Apia", "currency": "Tala", "area": "2944"}, {"name": "San Marino", "iso2": "SM", "iso3": "SMR", "isoNumeric": "674", "phoneCode": "378", "continent": "Europe", "capital": "San Marino", "currency": "Euro", "area": "61"}, {"name": "Sao Tome and Principe", "iso2": "ST", "iso3": "STP", "isoNumeric": "678", "phoneCode": "239", "continent": "Africa", "capital": "Sao Tome", "currency": "Dobra", "area": "1001"}, {"name": "Saudi Arabia", "iso2": "SA", "iso3": "SAU", "isoNumeric": "682", "phoneCode": "966", "continent": "Asia", "capital": "Riyadh", "currency": "Rial", "area": "1960582"}, {"name": "Senegal", "iso2": "SN", "iso3": "SEN", "isoNumeric": "686", "phoneCode": "221", "continent": "Africa", "capital": "Dakar", "currency": "Franc", "area": "196190"}, {"name": "Serbia", "iso2": "RS", "iso3": "SRB", "isoNumeric": "688", "phoneCode": "381", "continent": "Europe", "capital": "Belgrade", "currency": "Dinar", "area": "88361"}, {"name": "Seychelles", "iso2": "SC", "iso3": "SYC", "isoNumeric": "690", "phoneCode": "248", "continent": "Africa", "capital": "Victoria", "currency": "Rupee", "area": "455"}, {"name": "Sierra Leone", "iso2": "SL", "iso3": "SLE", "isoNumeric": "694", "phoneCode": "232", "continent": "Africa", "capital": "Freetown", "currency": "Leone", "area": "71740"}, {"name": "Singapore", "iso2": "SG", "iso3": "SGP", "isoNumeric": "702", "phoneCode": "65", "continent": "Asia", "capital": "Singapore", "currency": "Dollar", "area": "693"}, {"name": "Sint Maarten", "iso2": "SX", "iso3": "SXM", "isoNumeric": "534", "phoneCode": "1-721", "continent": "North America", "capital": "Philipsburg", "currency": "Guilder", "area": "34"}, {"name": "Slovakia", "iso2": "SK", "iso3": "SVK", "isoNumeric": "703", "phoneCode": "421", "continent": "Europe", "capital": "Bratislava", "currency": "Euro", "area": "48845"}, {"name": "Slovenia", "iso2": "SI", "iso3": "SVN", "isoNumeric": "705", "phoneCode": "386", "continent": "Europe", "capital": "Ljubljana", "currency": "Euro", "area": "20273"}, {"name": "Solomon Islands", "iso2": "SB", "iso3": "SLB", "isoNumeric": "90", "phoneCode": "677", "continent": "Australia", "capital": "Honiara", "currency": "Dollar", "area": "28450"}, {"name": "Somalia", "iso2": "SO", "iso3": "SOM", "isoNumeric": "706", "phoneCode": "252", "continent": "Africa", "capital": "Mogadishu", "currency": "Shilling", "area": "637657"}, {"name": "South Africa", "iso2": "ZA", "iso3": "ZAF", "isoNumeric": "710", "phoneCode": "27", "continent": "Africa", "capital": "Pretoria", "currency": "Rand", "area": "1219912"}, {"name": "South Korea", "iso2": "KR", "iso3": "KOR", "isoNumeric": "410", "phoneCode": "82", "continent": "Asia", "capital": "Seoul", "currency": "Won", "area": "98480"}, {"name": "South Sudan", "iso2": "SS", "iso3": "SSD", "isoNumeric": "728", "phoneCode": "211", "continent": "Africa", "capital": "Juba", "currency": "Pound", "area": "644329"}, {"name": "Spain", "iso2": "ES", "iso3": "ESP", "isoNumeric": "724", "phoneCode": "34", "continent": "Europe", "capital": "Madrid", "currency": "Euro", "area": "504782"}, {"name": "Sri Lanka", "iso2": "LK", "iso3": "LKA", "isoNumeric": "144", "phoneCode": "94", "continent": "Asia", "capital": "Colombo", "currency": "Rupee", "area": "65610"}, {"name": "Sudan", "iso2": "SD", "iso3": "SDN", "isoNumeric": "729", "phoneCode": "249", "continent": "Africa", "capital": "Khartoum", "currency": "Pound", "area": "1861484"}, {"name": "Suriname", "iso2": "SR", "iso3": "SUR", "isoNumeric": "740", "phoneCode": "597", "continent": "South America", "capital": "Paramaribo", "currency": "Dollar", "area": "163270"}, {"name": "Svalbard and Jan Mayen", "iso2": "SJ", "iso3": "SJM", "isoNumeric": "744", "phoneCode": "47", "continent": "Arctic", "capital": "Longyearbyen", "currency": "Krone", "area": "62049"}, {"name": "Swaziland", "iso2": "SZ", "iso3": "SWZ", "isoNumeric": "748", "phoneCode": "268", "continent": "Africa", "capital": "Mbabane", "currency": "Lilangeni", "area": "17363"}, {"name": "Sweden", "iso2": "SE", "iso3": "SWE", "isoNumeric": "752", "phoneCode": "46", "continent": "Europe", "capital": "Stockholm", "currency": "Krona", "area": "449964"}, {"name": "Switzerland", "iso2": "CH", "iso3": "CHE", "isoNumeric": "756", "phoneCode": "41", "continent": "Europe", "capital": "Berne", "currency": "Franc", "area": "41290"}, {"name": "Syria", "iso2": "SY", "iso3": "SYR", "isoNumeric": "760", "phoneCode": "963", "continent": "Asia", "capital": "Damascus", "currency": "Pound", "area": "185180"}, {"name": "Taiwan Region", "iso2": "TW", "iso3": "TWN", "isoNumeric": "158", "phoneCode": "886", "continent": "Asia", "capital": "Taipei", "currency": "Dollar", "area": "35980"}, {"name": "Tajikistan", "iso2": "TJ", "iso3": "TJK", "isoNumeric": "762", "phoneCode": "992", "continent": "Asia", "capital": "Dushanbe", "currency": "Somoni", "area": "143100"}, {"name": "Tanzania", "iso2": "TZ", "iso3": "TZA", "isoNumeric": "834", "phoneCode": "255", "continent": "Africa", "capital": "Dodoma", "currency": "Shilling", "area": "945087"}, {"name": "Thailand", "iso2": "TH", "iso3": "THA", "isoNumeric": "764", "phoneCode": "66", "continent": "Asia", "capital": "Bangkok", "currency": "Baht", "area": "514000"}, {"name": "Togo", "iso2": "TG", "iso3": "TGO", "isoNumeric": "768", "phoneCode": "228", "continent": "Africa", "capital": "Lome", "currency": "Franc", "area": "56785"}, {"name": "Tokelau", "iso2": "TK", "iso3": "TKL", "isoNumeric": "772", "phoneCode": "690", "continent": "Australia", "capital": "", "currency": "Dollar", "area": "10"}, {"name": "Tonga", "iso2": "TO", "iso3": "TON", "isoNumeric": "776", "phoneCode": "676", "continent": "Australia", "capital": "Nuku'alofa", "currency": "Pa'anga", "area": "748"}, {"name": "Trinidad and Tobago", "iso2": "TT", "iso3": "TTO", "isoNumeric": "780", "phoneCode": "1-868", "continent": "North America", "capital": "Port of Spain", "currency": "Dollar", "area": "5128"}, {"name": "Tunisia", "iso2": "TN", "iso3": "TUN", "isoNumeric": "788", "phoneCode": "216", "continent": "Africa", "capital": "Tunis", "currency": "Dinar", "area": "163610"}, {"name": "Turkey", "iso2": "TR", "iso3": "TUR", "isoNumeric": "792", "phoneCode": "90", "continent": "Europe", "capital": "Ankara", "currency": "Lira", "area": "780580"}, {"name": "Turkmenistan", "iso2": "TM", "iso3": "TKM", "isoNumeric": "795", "phoneCode": "993", "continent": "Asia", "capital": "Ashgabat", "currency": "Manat", "area": "488100"}, {"name": "Turks and Caicos Islands", "iso2": "TC", "iso3": "TCA", "isoNumeric": "796", "phoneCode": "1-649", "continent": "North America", "capital": "Cockburn Town", "currency": "Dollar", "area": "430"}, {"name": "Tuvalu", "iso2": "TV", "iso3": "TUV", "isoNumeric": "798", "phoneCode": "688", "continent": "Australia", "capital": "Funafuti", "currency": "Dollar", "area": "26"}, {"name": "U.S. Virgin Islands", "iso2": "VI", "iso3": "VIR", "isoNumeric": "850", "phoneCode": "1-340", "continent": "North America", "capital": "Charlotte Amalie", "currency": "Dollar", "area": "352"}, {"name": "Uganda", "iso2": "UG", "iso3": "UGA", "isoNumeric": "800", "phoneCode": "256", "continent": "Africa", "capital": "Kampala", "currency": "Shilling", "area": "236040"}, {"name": "Ukraine", "iso2": "UA", "iso3": "UKR", "isoNumeric": "804", "phoneCode": "380", "continent": "Europe", "capital": "Kiev", "currency": "Hryvnia", "area": "603700"}, {"name": "United Arab Emirates", "iso2": "AE", "iso3": "ARE", "isoNumeric": "784", "phoneCode": "971", "continent": "Asia", "capital": "Abu Dhabi", "currency": "Dirham", "area": "82880"}, {"name": "United Kingdom", "iso2": "GB", "iso3": "GBR", "isoNumeric": "826", "phoneCode": "44", "continent": "Europe", "capital": "London", "currency": "Pound", "area": "244820"}, {"name": "United States", "iso2": "US", "iso3": "USA", "isoNumeric": "840", "phoneCode": "1", "continent": "North America", "capital": "Washington", "currency": "Dollar", "area": "9629091"}, {"name": "Uruguay", "iso2": "UY", "iso3": "URY", "isoNumeric": "858", "phoneCode": "598", "continent": "South America", "capital": "Montevideo", "currency": "Peso", "area": "176220"}, {"name": "Uzbekistan", "iso2": "UZ", "iso3": "UZB", "isoNumeric": "860", "phoneCode": "998", "continent": "Asia", "capital": "Tashkent", "currency": "Som", "area": "447400"}, {"name": "Vanuatu", "iso2": "VU", "iso3": "VUT", "isoNumeric": "548", "phoneCode": "678", "continent": "Australia", "capital": "Port Vila", "currency": "Vatu", "area": "12200"}, {"name": "Vatican", "iso2": "VA", "iso3": "VAT", "isoNumeric": "336", "phoneCode": "379", "continent": "Europe", "capital": "Vatican City", "currency": "Euro", "area": "0"}, {"name": "Venezuela", "iso2": "VE", "iso3": "VEN", "isoNumeric": "862", "phoneCode": "58", "continent": "South America", "capital": "Caracas", "currency": "Bolivar", "area": "912050"}, {"name": "Vietnam", "iso2": "VN", "iso3": "VNM", "isoNumeric": "704", "phoneCode": "84", "continent": "Asia", "capital": "Hanoi", "currency": "Dong", "area": "329560"}, {"name": "Wallis and Futuna", "iso2": "WF", "iso3": "WLF", "isoNumeric": "876", "phoneCode": "681", "continent": "Australia", "capital": "Mata Utu", "currency": "Franc", "area": "274"}, {"name": "Western Sahara", "iso2": "EH", "iso3": "ESH", "isoNumeric": "732", "phoneCode": "212", "continent": "Africa", "capital": "El-Aaiun", "currency": "Dirham", "area": "266000"}, {"name": "Yemen", "iso2": "YE", "iso3": "YEM", "isoNumeric": "887", "phoneCode": "967", "continent": "Asia", "capital": "Sanaa", "currency": "Rial", "area": "527970"}, {"name": "Zambia", "iso2": "ZM", "iso3": "ZMB", "isoNumeric": "894", "phoneCode": "260", "continent": "Africa", "capital": "Lusaka", "currency": "Kwacha", "area": "752614"}, {"name": "Zimbabwe", "iso2": "ZW", "iso3": "ZWE", "isoNumeric": "716", "phoneCode": "263", "continent": "Africa", "capital": "Harare", "currency": "Dollar", "area": "390580"}, {"name": "Afghanistan", "iso2": "AF", "iso3": "AFG", "isoNumeric": "", "phoneCode": "", "continent": "Asia", "capital": "", "currency": "", "area": ""}, {"name": "Aland Islands", "iso2": "AX", "iso3": "ALA", "isoNumeric": "", "phoneCode": "", "continent": "Europe", "capital": "", "currency": "", "area": ""}, {"name": "Albania", "iso2": "AL", "iso3": "ALB", "isoNumeric": "", "phoneCode": "", "continent": "Europe", "capital": "", "currency": "", "area": ""}, {"name": "Algeria", "iso2": "DZ", "iso3": "DZA", "isoNumeric": "", "phoneCode": "", "continent": "Asia", "capital": "", "currency": "", "area": ""}, {"name": "American Samoa", "iso2": "AS", "iso3": "ASM", "isoNumeric": "", "phoneCode": "", "continent": "Australia", "capital": "", "currency": "", "area": ""}, {"name": "Andorra", "iso2": "AD", "iso3": "AND", "isoNumeric": "", "phoneCode": "", "continent": "Europe", "capital": "", "currency": "", "area": ""}, {"name": "Angola", "iso2": "AO", "iso3": "AGO", "isoNumeric": "", "phoneCode": "", "continent": "Africa", "capital": "", "currency": "", "area": ""}, {"name": "Anguilla", "iso2": "AI", "iso3": "AIA", "isoNumeric": "", "phoneCode": "", "continent": "North America", "capital": "", "currency": "", "area": ""}, {"name": "Antarctica", "iso2": "AQ", "iso3": "ATA", "isoNumeric": "", "phoneCode": "", "continent": "Antarctica", "capital": "", "currency": "", "area": ""}, {"name": "Antigua and Barbuda", "iso2": "AG", "iso3": "ATG", "isoNumeric": "", "phoneCode": "", "continent": "North America", "capital": "", "currency": "", "area": ""}, {"name": "Argentina", "iso2": "AR", "iso3": "ARG", "isoNumeric": "", "phoneCode": "", "continent": "South America", "capital": "", "currency": "", "area": ""}, {"name": "Armenia", "iso2": "AM", "iso3": "ARM", "isoNumeric": "", "phoneCode": "", "continent": "Asia", "capital": "", "currency": "", "area": ""}, {"name": "Aruba", "iso2": "AW", "iso3": "ABW", "isoNumeric": "", "phoneCode": "", "continent": "South America", "capital": "", "currency": "", "area": ""}, {"name": "Australia", "iso2": "AU", "iso3": "AUS", "isoNumeric": "", "phoneCode": "", "continent": "Australia", "capital": "", "currency": "", "area": ""}, {"name": "Austria", "iso2": "AT", "iso3": "AUT", "isoNumeric": "", "phoneCode": "", "continent": "Europe", "capital": "", "currency": "", "area": ""}, {"name": "Azerbaijan", "iso2": "AZ", "iso3": "AZE", "isoNumeric": "", "phoneCode": "", "continent": "Asia", "capital": "", "currency": "", "area": ""}, {"name": "Bahamas", "iso2": "BS", "iso3": "BHS", "isoNumeric": "", "phoneCode": "", "continent": "North America", "capital": "", "currency": "", "area": ""}, {"name": "Bahrain", "iso2": "BH", "iso3": "BHR", "isoNumeric": "", "phoneCode": "", "continent": "Asia", "capital": "", "currency": "", "area": ""}, {"name": "Bangladesh", "iso2": "BD", "iso3": "BGD", "isoNumeric": "", "phoneCode": "", "continent": "Asia", "capital": "", "currency": "", "area": ""}, {"name": "Barbados", "iso2": "BB", "iso3": "BRB", "isoNumeric": "", "phoneCode": "", "continent": "North America", "capital": "", "currency": "", "area": ""}, {"name": "Belarus", "iso2": "BY", "iso3": "BLR", "isoNumeric": "", "phoneCode": "", "continent": "Europe", "capital": "", "currency": "", "area": ""}, {"name": "Belgium", "iso2": "BE", "iso3": "BEL", "isoNumeric": "", "phoneCode": "", "continent": "Europe", "capital": "", "currency": "", "area": ""}, {"name": "Belize", "iso2": "BZ", "iso3": "BLZ", "isoNumeric": "", "phoneCode": "", "continent": "North America", "capital": "", "currency": "", "area": ""}, {"name": "Benin", "iso2": "BJ", "iso3": "BEN", "isoNumeric": "", "phoneCode": "", "continent": "Africa", "capital": "", "currency": "", "area": ""}, {"name": "Bermuda", "iso2": "BM", "iso3": "BMU", "isoNumeric": "", "phoneCode": "", "continent": "North America", "capital": "", "currency": "", "area": ""}, {"name": "Bhutan", "iso2": "BT", "iso3": "BTN", "isoNumeric": "", "phoneCode": "", "continent": "Asia", "capital": "", "currency": "", "area": ""}, {"name": "Bolivia", "iso2": "BO", "iso3": "BOL", "isoNumeric": "", "phoneCode": "", "continent": "South America", "capital": "", "currency": "", "area": ""}, {"name": "Bosnia and Herzegovina", "iso2": "BA", "iso3": "BIH", "isoNumeric": "", "phoneCode": "", "continent": "Europe", "capital": "", "currency": "", "area": ""}, {"name": "Botswana", "iso2": "BW", "iso3": "BWA", "isoNumeric": "", "phoneCode": "", "continent": "Africa", "capital": "", "currency": "", "area": ""}, {"name": "Bouvet Island", "iso2": "BV", "iso3": "BVT", "isoNumeric": "", "phoneCode": "", "continent": "Antarctica", "capital": "", "currency": "", "area": ""}, {"name": "Brazil", "iso2": "BR", "iso3": "BRA", "isoNumeric": "", "phoneCode": "", "continent": "South America", "capital": "", "currency": "", "area": ""}, {"name": "British Indian Ocean Territory", "iso2": "IO", "iso3": "IOT", "isoNumeric": "", "phoneCode": "", "continent": "Asia", "capital": "", "currency": "", "area": ""}, {"name": "British Virgin Islands", "iso2": "VG", "iso3": "VGB", "isoNumeric": "", "phoneCode": "", "continent": "North America", "capital": "", "currency": "", "area": ""}, {"name": "Brunei", "iso2": "BN", "iso3": "BRN", "isoNumeric": "", "phoneCode": "", "continent": "Asia", "capital": "", "currency": "", "area": ""}, {"name": "Bulgaria", "iso2": "BG", "iso3": "BGR", "isoNumeric": "", "phoneCode": "", "continent": "Europe", "capital": "", "currency": "", "area": ""}, {"name": "Burkina Faso", "iso2": "BF", "iso3": "BFA", "isoNumeric": "", "phoneCode": "", "continent": "Africa", "capital": "", "currency": "", "area": ""}, {"name": "Burundi", "iso2": "BI", "iso3": "BDI", "isoNumeric": "", "phoneCode": "", "continent": "Africa", "capital": "", "currency": "", "area": ""}, {"name": "Cambodia", "iso2": "KH", "iso3": "KHM", "isoNumeric": "", "phoneCode": "", "continent": "Asia", "capital": "", "currency": "", "area": ""}, {"name": "Cameroon", "iso2": "CM", "iso3": "CMR", "isoNumeric": "", "phoneCode": "", "continent": "Africa", "capital": "", "currency": "", "area": ""}, {"name": "Canada", "iso2": "CA", "iso3": "CAN", "isoNumeric": "", "phoneCode": "", "continent": "North America", "capital": "", "currency": "", "area": ""}, {"name": "Cape Verde", "iso2": "CV", "iso3": "CPV", "isoNumeric": "", "phoneCode": "", "continent": "Africa", "capital": "", "currency": "", "area": ""}, {"name": "Caribbean Netherlands", "iso2": "BQ", "iso3": "", "isoNumeric": "", "phoneCode": "", "continent": "Asia", "capital": "", "currency": "", "area": ""}, {"name": "Cayman Islands", "iso2": "KY", "iso3": "CYM", "isoNumeric": "", "phoneCode": "", "continent": "North America", "capital": "", "currency": "", "area": ""}, {"name": "Central African Republic", "iso2": "CF", "iso3": "CAF", "isoNumeric": "", "phoneCode": "", "continent": "Africa", "capital": "", "currency": "", "area": ""}, {"name": "Chad", "iso2": "TD", "iso3": "TCD", "isoNumeric": "", "phoneCode": "", "continent": "Africa", "capital": "", "currency": "", "area": ""}, {"name": "Chile", "iso2": "CL", "iso3": "CHL", "isoNumeric": "", "phoneCode": "", "continent": "South America", "capital": "", "currency": "", "area": ""}, {"name": "China", "iso2": "CN", "iso3": "CHN", "isoNumeric": "", "phoneCode": "", "continent": "Asia", "capital": "", "currency": "", "area": ""}, {"name": "Christmas Island", "iso2": "CX", "iso3": "CXR", "isoNumeric": "", "phoneCode": "", "continent": "Asia", "capital": "", "currency": "", "area": ""}, {"name": "Cocos (Keeling) Islands", "iso2": "CC", "iso3": "CCK", "isoNumeric": "", "phoneCode": "", "continent": "Asia", "capital": "", "currency": "", "area": ""}, {"name": "Colombia", "iso2": "CO", "iso3": "COL", "isoNumeric": "", "phoneCode": "", "continent": "South America", "capital": "", "currency": "", "area": ""}, {"name": "Comoros", "iso2": "KM", "iso3": "COM", "isoNumeric": "", "phoneCode": "", "continent": "Africa", "capital": "", "currency": "", "area": ""}, {"name": "Congo (Brazzaville)", "iso2": "CG", "iso3": "COG", "isoNumeric": "", "phoneCode": "", "continent": "Africa", "capital": "", "currency": "", "area": ""}, {"name": "Congo (Kinshasa)", "iso2": "CD", "iso3": "COD", "isoNumeric": "", "phoneCode": "", "continent": "Africa", "capital": "", "currency": "", "area": ""}, {"name": "Cook Islands", "iso2": "CK", "iso3": "COK", "isoNumeric": "", "phoneCode": "", "continent": "Australia", "capital": "", "currency": "", "area": ""}, {"name": "Costa Rica", "iso2": "CR", "iso3": "CRI", "isoNumeric": "", "phoneCode": "", "continent": "North America", "capital": "", "currency": "", "area": ""}, {"name": "Croatia", "iso2": "HR", "iso3": "HRV", "isoNumeric": "", "phoneCode": "", "continent": "Europe", "capital": "", "currency": "", "area": ""}, {"name": "Cuba", "iso2": "CU", "iso3": "CUB", "isoNumeric": "", "phoneCode": "", "continent": "North America", "capital": "", "currency": "", "area": ""}, {"name": "Curacao", "iso2": "CW", "iso3": "CUW", "isoNumeric": "", "phoneCode": "", "continent": "South America", "capital": "", "currency": "", "area": ""}, {"name": "Cyprus", "iso2": "CY", "iso3": "CYP", "isoNumeric": "", "phoneCode": "", "continent": "Europe", "capital": "", "currency": "", "area": ""}, {"name": "Czech Republic", "iso2": "CZ", "iso3": "CZE", "isoNumeric": "", "phoneCode": "", "continent": "Europe", "capital": "", "currency": "", "area": ""}, {"name": "Denmark", "iso2": "DK", "iso3": "DNK", "isoNumeric": "", "phoneCode": "", "continent": "Europe", "capital": "", "currency": "", "area": ""}, {"name": "Djibouti", "iso2": "DJ", "iso3": "DJI", "isoNumeric": "", "phoneCode": "", "continent": "Africa", "capital": "", "currency": "", "area": ""}, {"name": "Dominica", "iso2": "DM", "iso3": "DMA", "isoNumeric": "", "phoneCode": "", "continent": "North America", "capital": "", "currency": "", "area": ""}, {"name": "Dominican Republic", "iso2": "DO", "iso3": "DOM", "isoNumeric": "", "phoneCode": "", "continent": "Dominican Republic", "capital": "", "currency": "", "area": ""}, {"name": "Ecuador", "iso2": "EC", "iso3": "ECU", "isoNumeric": "", "phoneCode": "", "continent": "South America", "capital": "", "currency": "", "area": ""}, {"name": "Egypt", "iso2": "EG", "iso3": "EGY", "isoNumeric": "", "phoneCode": "", "continent": "Africa", "capital": "", "currency": "", "area": ""}, {"name": "El Salvador", "iso2": "SV", "iso3": "SLV", "isoNumeric": "", "phoneCode": "", "continent": "North America", "capital": "", "currency": "", "area": ""}, {"name": "Equatorial Guinea", "iso2": "GQ", "iso3": "GNQ", "isoNumeric": "", "phoneCode": "", "continent": "Africa", "capital": "", "currency": "", "area": ""}, {"name": "Eritrea", "iso2": "ER", "iso3": "ERI", "isoNumeric": "", "phoneCode": "", "continent": "Africa", "capital": "", "currency": "", "area": ""}, {"name": "Estonia", "iso2": "EE", "iso3": "EST", "isoNumeric": "", "phoneCode": "", "continent": "Africa", "capital": "", "currency": "", "area": ""}, {"name": "Ethiopia", "iso2": "ET", "iso3": "ETH", "isoNumeric": "", "phoneCode": "", "continent": "Africa", "capital": "", "currency": "", "area": ""}, {"name": "Falkland Islands", "iso2": "FK", "iso3": "FLK", "isoNumeric": "", "phoneCode": "", "continent": "South America", "capital": "", "currency": "", "area": ""}, {"name": "Faroe Islands", "iso2": "FO", "iso3": "FRO", "isoNumeric": "", "phoneCode": "", "continent": "Europe", "capital": "", "currency": "", "area": ""}, {"name": "Fiji", "iso2": "FJ", "iso3": "FJI", "isoNumeric": "", "phoneCode": "", "continent": "Australia", "capital": "", "currency": "", "area": ""}, {"name": "Finland", "iso2": "FI", "iso3": "FIN", "isoNumeric": "", "phoneCode": "", "continent": "Europe", "capital": "", "currency": "", "area": ""}, {"name": "France", "iso2": "FR", "iso3": "FRA", "isoNumeric": "", "phoneCode": "", "continent": "Europe", "capital": "", "currency": "", "area": ""}, {"name": "French Guiana", "iso2": "GF", "iso3": "GUF", "isoNumeric": "", "phoneCode": "", "continent": "South America", "capital": "", "currency": "", "area": ""}, {"name": "French Polynesia", "iso2": "PF", "iso3": "PYF", "isoNumeric": "", "phoneCode": "", "continent": "Australia", "capital": "", "currency": "", "area": ""}, {"name": "French Southern Territories", "iso2": "TF", "iso3": "ATF", "isoNumeric": "", "phoneCode": "", "continent": "Antarctica", "capital": "", "currency": "", "area": ""}, {"name": "Gabon", "iso2": "GA", "iso3": "GAB", "isoNumeric": "", "phoneCode": "", "continent": "Africa", "capital": "", "currency": "", "area": ""}, {"name": "Gambia", "iso2": "GM", "iso3": "GMB", "isoNumeric": "", "phoneCode": "", "continent": "Africa", "capital": "", "currency": "", "area": ""}, {"name": "Georgia", "iso2": "GE", "iso3": "GEO", "isoNumeric": "", "phoneCode": "", "continent": "North America", "capital": "", "currency": "", "area": ""}, {"name": "Germany", "iso2": "DE", "iso3": "DEU", "isoNumeric": "", "phoneCode": "", "continent": "Europe", "capital": "", "currency": "", "area": ""}, {"name": "Ghana", "iso2": "GH", "iso3": "GHA", "isoNumeric": "", "phoneCode": "", "continent": "Africa", "capital": "", "currency": "", "area": ""}, {"name": "Gibraltar", "iso2": "GI", "iso3": "GIB", "isoNumeric": "", "phoneCode": "", "continent": "Europe", "capital": "", "currency": "", "area": ""}, {"name": "Greece", "iso2": "GR", "iso3": "GRC", "isoNumeric": "", "phoneCode": "", "continent": "Europe", "capital": "", "currency": "", "area": ""}, {"name": "Greenland", "iso2": "GL", "iso3": "GRL", "isoNumeric": "", "phoneCode": "", "continent": "Arctic", "capital": "", "currency": "", "area": ""}, {"name": "Grenada", "iso2": "GD", "iso3": "GRD", "isoNumeric": "", "phoneCode": "", "continent": "North America", "capital": "", "currency": "", "area": ""}, {"name": "Guadeloupe", "iso2": "GP", "iso3": "GLP", "isoNumeric": "", "phoneCode": "", "continent": "North America", "capital": "", "currency": "", "area": ""}, {"name": "Guam", "iso2": "GU", "iso3": "GUM", "isoNumeric": "", "phoneCode": "", "continent": "Australia", "capital": "", "currency": "", "area": ""}, {"name": "Guatemala", "iso2": "GT", "iso3": "GTM", "isoNumeric": "", "phoneCode": "", "continent": "North America", "capital": "", "currency": "", "area": ""}, {"name": "Guernsey", "iso2": "GG", "iso3": "GGY", "isoNumeric": "", "phoneCode": "", "continent": "Europe", "capital": "", "currency": "", "area": ""}, {"name": "Guinea", "iso2": "GN", "iso3": "GIN", "isoNumeric": "", "phoneCode": "", "continent": "Africa", "capital": "", "currency": "", "area": ""}, {"name": "Guinea-Bissau", "iso2": "GW", "iso3": "GNB", "isoNumeric": "", "phoneCode": "", "continent": "Africa", "capital": "", "currency": "", "area": ""}, {"name": "Guyana", "iso2": "GY", "iso3": "GUY", "isoNumeric": "", "phoneCode": "", "continent": "South America", "capital": "", "currency": "", "area": ""}, {"name": "Haiti", "iso2": "HT", "iso3": "HTI", "isoNumeric": "", "phoneCode": "", "continent": "North America", "capital": "", "currency": "", "area": ""}, {"name": "Heard Island and McDonald Islands", "iso2": "HM", "iso3": "HMD", "isoNumeric": "", "phoneCode": "", "continent": "Antarctica", "capital": "", "currency": "", "area": ""}, {"name": "Honduras", "iso2": "HN", "iso3": "HND", "isoNumeric": "", "phoneCode": "", "continent": "North America", "capital": "", "currency": "", "area": ""}, {"name": "Hong Kong SAR", "iso2": "HK", "iso3": "HKG", "isoNumeric": "", "phoneCode": "", "continent": "Asia", "capital": "", "currency": "", "area": ""}, {"name": "Hungary", "iso2": "HU", "iso3": "HUN", "isoNumeric": "", "phoneCode": "", "continent": "Europe", "capital": "", "currency": "", "area": ""}, {"name": "Iceland", "iso2": "IS", "iso3": "ISL", "isoNumeric": "", "phoneCode": "", "continent": "Europe", "capital": "", "currency": "", "area": ""}, {"name": "India", "iso2": "IN", "iso3": "IND", "isoNumeric": "", "phoneCode": "", "continent": "Asia", "capital": "", "currency": "", "area": ""}, {"name": "Indonesia", "iso2": "ID", "iso3": "IDN", "isoNumeric": "", "phoneCode": "", "continent": "Asia", "capital": "", "currency": "", "area": ""}, {"name": "Iran", "iso2": "IR", "iso3": "IRN", "isoNumeric": "", "phoneCode": "", "continent": "Asia", "capital": "", "currency": "", "area": ""}, {"name": "Iraq", "iso2": "IQ", "iso3": "IRQ", "isoNumeric": "", "phoneCode": "", "continent": "Asia", "capital": "", "currency": "", "area": ""}, {"name": "Ireland", "iso2": "IE", "iso3": "IRL", "isoNumeric": "", "phoneCode": "", "continent": "Europe", "capital": "", "currency": "", "area": ""}, {"name": "Isle of Man", "iso2": "IM", "iso3": "IMN", "isoNumeric": "", "phoneCode": "", "continent": "Europe", "capital": "", "currency": "", "area": ""}, {"name": "Israel", "iso2": "IL", "iso3": "ISR", "isoNumeric": "", "phoneCode": "", "continent": "Asia", "capital": "", "currency": "", "area": ""}, {"name": "Italy", "iso2": "IT", "iso3": "ITA", "isoNumeric": "", "phoneCode": "", "continent": "Europe", "capital": "", "currency": "", "area": ""}, {"name": "Ivory Coast", "iso2": "CI", "iso3": "CIV", "isoNumeric": "", "phoneCode": "", "continent": "Africa", "capital": "", "currency": "", "area": ""}, {"name": "Jamaica", "iso2": "JM", "iso3": "JAM", "isoNumeric": "", "phoneCode": "", "continent": "North America", "capital": "", "currency": "", "area": ""}, {"name": "Japan", "iso2": "JP", "iso3": "JPN", "isoNumeric": "", "phoneCode": "", "continent": "Asia", "capital": "", "currency": "", "area": ""}, {"name": "Jersey", "iso2": "JE", "iso3": "JEY", "isoNumeric": "", "phoneCode": "", "continent": "North America", "capital": "", "currency": "", "area": ""}, {"name": "Jordan", "iso2": "JO", "iso3": "JOR", "isoNumeric": "", "phoneCode": "", "continent": "Asia", "capital": "", "currency": "", "area": ""}, {"name": "Kazakhstan", "iso2": "KZ", "iso3": "KAZ", "isoNumeric": "", "phoneCode": "", "continent": "Asia", "capital": "", "currency": "", "area": ""}, {"name": "Kenya", "iso2": "KE", "iso3": "KEN", "isoNumeric": "", "phoneCode": "", "continent": "Africa", "capital": "", "currency": "", "area": ""}, {"name": "Kiribati", "iso2": "KI", "iso3": "KIR", "isoNumeric": "", "phoneCode": "", "continent": "Australia", "capital": "", "currency": "", "area": ""}, {"name": "Kuwait", "iso2": "KW", "iso3": "KWT", "isoNumeric": "", "phoneCode": "", "continent": "Asia", "capital": "", "currency": "", "area": ""}, {"name": "Kyrgyzstan", "iso2": "KG", "iso3": "KGZ", "isoNumeric": "", "phoneCode": "", "continent": "Asia", "capital": "", "currency": "", "area": ""}, {"name": "Laos", "iso2": "LA", "iso3": "LAO", "isoNumeric": "", "phoneCode": "", "continent": "Asia", "capital": "", "currency": "", "area": ""}, {"name": "Latvia", "iso2": "LV", "iso3": "LVA", "isoNumeric": "", "phoneCode": "", "continent": "Europe", "capital": "", "currency": "", "area": ""}, {"name": "Lebanon", "iso2": "LB", "iso3": "LBN", "isoNumeric": "", "phoneCode": "", "continent": "Asia", "capital": "", "currency": "", "area": ""}, {"name": "Lesotho", "iso2": "LS", "iso3": "LSO", "isoNumeric": "", "phoneCode": "", "continent": "Africa", "capital": "", "currency": "", "area": ""}, {"name": "Liberia", "iso2": "LR", "iso3": "LBR", "isoNumeric": "", "phoneCode": "", "continent": "Africa", "capital": "", "currency": "", "area": ""}, {"name": "Libya", "iso2": "LY", "iso3": "LBY", "isoNumeric": "", "phoneCode": "", "continent": "Asia", "capital": "", "currency": "", "area": ""}, {"name": "Liechtenstein", "iso2": "LI", "iso3": "LIE", "isoNumeric": "", "phoneCode": "", "continent": "Europe", "capital": "", "currency": "", "area": ""}, {"name": "Lithuania", "iso2": "LT", "iso3": "LTU", "isoNumeric": "", "phoneCode": "", "continent": "Europe", "capital": "", "currency": "", "area": ""}, {"name": "Luxembourg", "iso2": "LU", "iso3": "LUX", "isoNumeric": "", "phoneCode": "", "continent": "Europe", "capital": "", "currency": "", "area": ""}, {"name": "Macau SAR", "iso2": "MO", "iso3": "MAC", "isoNumeric": "", "phoneCode": "", "continent": "Asia", "capital": "", "currency": "", "area": ""}, {"name": "North Macedonia", "iso2": "MK", "iso3": "MKD", "isoNumeric": "", "phoneCode": "", "continent": "Europe", "capital": "", "currency": "", "area": ""}, {"name": "Madagascar", "iso2": "MG", "iso3": "MDG", "isoNumeric": "", "phoneCode": "", "continent": "Africa", "capital": "", "currency": "", "area": ""}, {"name": "Malawi", "iso2": "MW", "iso3": "MWI", "isoNumeric": "", "phoneCode": "", "continent": "Africa", "capital": "", "currency": "", "area": ""}, {"name": "Malaysia", "iso2": "MY", "iso3": "MYS", "isoNumeric": "", "phoneCode": "", "continent": "Asia", "capital": "", "currency": "", "area": ""}, {"name": "Maldives", "iso2": "MV", "iso3": "MDV", "isoNumeric": "", "phoneCode": "", "continent": "Asia", "capital": "", "currency": "", "area": ""}, {"name": "Mali", "iso2": "ML", "iso3": "MLI", "isoNumeric": "", "phoneCode": "", "continent": "Africa", "capital": "", "currency": "", "area": ""}, {"name": "Malta", "iso2": "MT", "iso3": "MLT", "isoNumeric": "", "phoneCode": "", "continent": "Europe", "capital": "", "currency": "", "area": ""}, {"name": "Marshall Islands", "iso2": "MH", "iso3": "MHL", "isoNumeric": "", "phoneCode": "", "continent": "Australia", "capital": "", "currency": "", "area": ""}, {"name": "Martinique", "iso2": "MQ", "iso3": "MTQ", "isoNumeric": "", "phoneCode": "", "continent": "North America", "capital": "", "currency": "", "area": ""}, {"name": "Mauritania", "iso2": "MR", "iso3": "MRT", "isoNumeric": "", "phoneCode": "", "continent": "Africa", "capital": "", "currency": "", "area": ""}, {"name": "Mauritius", "iso2": "MU", "iso3": "MUS", "isoNumeric": "", "phoneCode": "", "continent": "Africa", "capital": "", "currency": "", "area": ""}, {"name": "Mayotte", "iso2": "YT", "iso3": "MYT", "isoNumeric": "", "phoneCode": "", "continent": "Africa", "capital": "", "currency": "", "area": ""}, {"name": "Mexico", "iso2": "MX", "iso3": "MEX", "isoNumeric": "", "phoneCode": "", "continent": "North America", "capital": "", "currency": "", "area": ""}, {"name": "Micronesia", "iso2": "FM", "iso3": "FSM", "isoNumeric": "", "phoneCode": "", "continent": "Australia", "capital": "", "currency": "", "area": ""}, {"name": "Moldova", "iso2": "MD", "iso3": "MDA", "isoNumeric": "", "phoneCode": "", "continent": "Europe", "capital": "", "currency": "", "area": ""}, {"name": "Monaco", "iso2": "MC", "iso3": "MCO", "isoNumeric": "", "phoneCode": "", "continent": "Europe", "capital": "", "currency": "", "area": ""}, {"name": "Mongolia", "iso2": "MN", "iso3": "MNG", "isoNumeric": "", "phoneCode": "", "continent": "Asia", "capital": "", "currency": "", "area": ""}, {"name": "Montenegro", "iso2": "ME", "iso3": "MNE", "isoNumeric": "", "phoneCode": "", "continent": "Europe", "capital": "", "currency": "", "area": ""}, {"name": "Montserrat", "iso2": "MS", "iso3": "MSR", "isoNumeric": "", "phoneCode": "", "continent": "North America", "capital": "", "currency": "", "area": ""}, {"name": "Morocco", "iso2": "MA", "iso3": "MAR", "isoNumeric": "", "phoneCode": "", "continent": "Africa", "capital": "", "currency": "", "area": ""}, {"name": "Mozambique", "iso2": "MZ", "iso3": "MOZ", "isoNumeric": "", "phoneCode": "", "continent": "Africa", "capital": "", "currency": "", "area": ""}, {"name": "Myanmar", "iso2": "MM", "iso3": "MMR", "isoNumeric": "", "phoneCode": "", "continent": "Asia", "capital": "", "currency": "", "area": ""}, {"name": "Namibia", "iso2": "NA", "iso3": "NAM", "isoNumeric": "", "phoneCode": "", "continent": "Africa", "capital": "", "currency": "", "area": ""}, {"name": "Nauru", "iso2": "NR", "iso3": "NRU", "isoNumeric": "", "phoneCode": "", "continent": "Australia", "capital": "", "currency": "", "area": ""}, {"name": "Nepal", "iso2": "NP", "iso3": "NPL", "isoNumeric": "", "phoneCode": "", "continent": "Asia", "capital": "", "currency": "", "area": ""}, {"name": "Netherlands", "iso2": "NL", "iso3": "NLD", "isoNumeric": "", "phoneCode": "", "continent": "Europe", "capital": "", "currency": "", "area": ""}, {"name": "Netherlands Antilles", "iso2": "AN", "iso3": "ANT", "isoNumeric": "", "phoneCode": "", "continent": "North America", "capital": "", "currency": "", "area": ""}, {"name": "New Caledonia", "iso2": "NC", "iso3": "NCL", "isoNumeric": "", "phoneCode": "", "continent": "Australia", "capital": "", "currency": "", "area": ""}, {"name": "New Zealand", "iso2": "NZ", "iso3": "NZL", "isoNumeric": "", "phoneCode": "", "continent": "Australia", "capital": "", "currency": "", "area": ""}, {"name": "Nicaragua", "iso2": "NI", "iso3": "NIC", "isoNumeric": "", "phoneCode": "", "continent": "North America", "capital": "", "currency": "", "area": ""}, {"name": "Niger", "iso2": "NE", "iso3": "NER", "isoNumeric": "", "phoneCode": "", "continent": "Africa", "capital": "", "currency": "", "area": ""}, {"name": "Nigeria", "iso2": "NG", "iso3": "NGA", "isoNumeric": "", "phoneCode": "", "continent": "Africa", "capital": "", "currency": "", "area": ""}, {"name": "Niue", "iso2": "NU", "iso3": "NIU", "isoNumeric": "", "phoneCode": "", "continent": "Australia", "capital": "", "currency": "", "area": ""}, {"name": "Norfolk Island", "iso2": "NF", "iso3": "NFK", "isoNumeric": "", "phoneCode": "", "continent": "Australia", "capital": "", "currency": "", "area": ""}, {"name": "Northern Mariana Islands", "iso2": "MP", "iso3": "MNP", "isoNumeric": "", "phoneCode": "", "continent": "Asia", "capital": "", "currency": "", "area": ""}, {"name": "North Korea", "iso2": "KP", "iso3": "PRK", "isoNumeric": "", "phoneCode": "", "continent": "Asia", "capital": "", "currency": "", "area": ""}, {"name": "Norway", "iso2": "NO", "iso3": "NOR", "isoNumeric": "", "phoneCode": "", "continent": "Europe", "capital": "", "currency": "", "area": ""}, {"name": "Oman", "iso2": "OM", "iso3": "OMN", "isoNumeric": "", "phoneCode": "", "continent": "Asia", "capital": "", "currency": "", "area": ""}, {"name": "Pakistan", "iso2": "PK", "iso3": "PAK", "isoNumeric": "", "phoneCode": "", "continent": "Asia", "capital": "", "currency": "", "area": ""}, {"name": "Palau", "iso2": "PW", "iso3": "PLW", "isoNumeric": "", "phoneCode": "", "continent": "Asia", "capital": "", "currency": "", "area": ""}, {"name": "Palestinian Territory", "iso2": "PS", "iso3": "PSE", "isoNumeric": "", "phoneCode": "", "continent": "Asia", "capital": "", "currency": "", "area": ""}, {"name": "Panama", "iso2": "PA", "iso3": "PAN", "isoNumeric": "", "phoneCode": "", "continent": "North America", "capital": "", "currency": "", "area": ""}, {"name": "Papua New Guinea", "iso2": "PG", "iso3": "PNG", "isoNumeric": "", "phoneCode": "", "continent": "Australia", "capital": "", "currency": "", "area": ""}, {"name": "Paraguay", "iso2": "PY", "iso3": "PRY", "isoNumeric": "", "phoneCode": "", "continent": "South America", "capital": "", "currency": "", "area": ""}, {"name": "Peru", "iso2": "PE", "iso3": "PER", "isoNumeric": "", "phoneCode": "", "continent": "South America", "capital": "", "currency": "", "area": ""}, {"name": "Philippines", "iso2": "PH", "iso3": "PHL", "isoNumeric": "", "phoneCode": "", "continent": "Asia", "capital": "", "currency": "", "area": ""}, {"name": "Pitcairn", "iso2": "PN", "iso3": "PCN", "isoNumeric": "", "phoneCode": "", "continent": "South America", "capital": "", "currency": "", "area": ""}, {"name": "Poland", "iso2": "PL", "iso3": "POL", "isoNumeric": "", "phoneCode": "", "continent": "Europe", "capital": "", "currency": "", "area": ""}, {"name": "Portugal", "iso2": "PT", "iso3": "PRT", "isoNumeric": "", "phoneCode": "", "continent": "Europe", "capital": "", "currency": "", "area": ""}, {"name": "Puerto Rico", "iso2": "PR", "iso3": "PRI", "isoNumeric": "", "phoneCode": "", "continent": "North America", "capital": "", "currency": "", "area": ""}, {"name": "Qatar", "iso2": "QA", "iso3": "QAT", "isoNumeric": "", "phoneCode": "", "continent": "Asia", "capital": "", "currency": "", "area": ""}, {"name": "Reunion", "iso2": "RE", "iso3": "REU", "isoNumeric": "", "phoneCode": "", "continent": "Africa", "capital": "", "currency": "", "area": ""}, {"name": "Romania", "iso2": "RO", "iso3": "ROU", "isoNumeric": "", "phoneCode": "", "continent": "Europe", "capital": "", "currency": "", "area": ""}, {"name": "Russia", "iso2": "RU", "iso3": "RUS", "isoNumeric": "", "phoneCode": "", "continent": "Europe", "capital": "", "currency": "", "area": ""}, {"name": "Rwanda", "iso2": "RW", "iso3": "RWA", "isoNumeric": "", "phoneCode": "", "continent": "Africa", "capital": "", "currency": "", "area": ""}, {"name": "Saint Barthelemy", "iso2": "BL", "iso3": "BLM", "isoNumeric": "", "phoneCode": "", "continent": "North America", "capital": "", "currency": "", "area": ""}, {"name": "Saint Helena", "iso2": "SH", "iso3": "SHN", "isoNumeric": "", "phoneCode": "", "continent": "Africa", "capital": "", "currency": "", "area": ""}, {"name": "Saint Kitts and Nevis", "iso2": "KN", "iso3": "KNA", "isoNumeric": "", "phoneCode": "", "continent": "North America", "capital": "", "currency": "", "area": ""}, {"name": "Saint Lucia", "iso2": "LC", "iso3": "LCA", "isoNumeric": "", "phoneCode": "", "continent": "North America", "capital": "", "currency": "", "area": ""}, {"name": "Saint Martin (French part)", "iso2": "MF", "iso3": "MAF", "isoNumeric": "", "phoneCode": "", "continent": "North America", "capital": "", "currency": "", "area": ""}, {"name": "Saint Pierre and Miquelon", "iso2": "PM", "iso3": "SPM", "isoNumeric": "", "phoneCode": "", "continent": "North America", "capital": "", "currency": "", "area": ""}, {"name": "Saint Vincent and the Grenadines", "iso2": "VC", "iso3": "VCT", "isoNumeric": "", "phoneCode": "", "continent": "North America", "capital": "", "currency": "", "area": ""}, {"name": "Samoa", "iso2": "WS", "iso3": "WSM", "isoNumeric": "", "phoneCode": "", "continent": "Australia", "capital": "", "currency": "", "area": ""}, {"name": "San Marino", "iso2": "SM", "iso3": "SMR", "isoNumeric": "", "phoneCode": "", "continent": "Europe", "capital": "", "currency": "", "area": ""}, {"name": "Sao Tome and Principe", "iso2": "ST", "iso3": "STP", "isoNumeric": "", "phoneCode": "", "continent": "Africa", "capital": "", "currency": "", "area": ""}, {"name": "Saudi Arabia", "iso2": "SA", "iso3": "SAU", "isoNumeric": "", "phoneCode": "", "continent": "Asia", "capital": "", "currency": "", "area": ""}, {"name": "Senegal", "iso2": "SN", "iso3": "SEN", "isoNumeric": "", "phoneCode": "", "continent": "Africa", "capital": "", "currency": "", "area": ""}, {"name": "Serbia", "iso2": "RS", "iso3": "SRB", "isoNumeric": "", "phoneCode": "", "continent": "Europe", "capital": "", "currency": "", "area": ""}, {"name": "Seychelles", "iso2": "SC", "iso3": "SYC", "isoNumeric": "", "phoneCode": "", "continent": "Africa", "capital": "", "currency": "", "area": ""}, {"name": "Sierra Leone", "iso2": "SL", "iso3": "SLE", "isoNumeric": "", "phoneCode": "", "continent": "Africa", "capital": "", "currency": "", "area": ""}, {"name": "Singapore", "iso2": "SG", "iso3": "SGP", "isoNumeric": "", "phoneCode": "", "continent": "Asia", "capital": "", "currency": "", "area": ""}, {"name": "Sint Maarten", "iso2": "SX", "iso3": "SXM", "isoNumeric": "", "phoneCode": "", "continent": "North America", "capital": "", "currency": "", "area": ""}, {"name": "Slovakia", "iso2": "SK", "iso3": "SVK", "isoNumeric": "", "phoneCode": "", "continent": "Europe", "capital": "", "currency": "", "area": ""}, {"name": "Slovenia", "iso2": "SI", "iso3": "SVN", "isoNumeric": "", "phoneCode": "", "continent": "Europe", "capital": "", "currency": "", "area": ""}, {"name": "Solomon Islands", "iso2": "SB", "iso3": "SLB", "isoNumeric": "", "phoneCode": "", "continent": "Australia", "capital": "", "currency": "", "area": ""}, {"name": "Somalia", "iso2": "SO", "iso3": "SOM", "isoNumeric": "", "phoneCode": "", "continent": "Africa", "capital": "", "currency": "", "area": ""}, {"name": "South Africa", "iso2": "ZA", "iso3": "ZAF", "isoNumeric": "", "phoneCode": "", "continent": "Africa", "capital": "", "currency": "", "area": ""}, {"name": "South Georgia and the South Sandwich Islands", "iso2": "GS", "iso3": "SGS", "isoNumeric": "", "phoneCode": "", "continent": "Antarctica", "capital": "", "currency": "", "area": ""}, {"name": "South Korea", "iso2": "KR", "iso3": "KOR", "isoNumeric": "", "phoneCode": "", "continent": "Asia", "capital": "", "currency": "", "area": ""}, {"name": "South Sudan", "iso2": "SS", "iso3": "SSD", "isoNumeric": "", "phoneCode": "", "continent": "Africa", "capital": "", "currency": "", "area": ""}, {"name": "Spain", "iso2": "ES", "iso3": "ESP", "isoNumeric": "", "phoneCode": "", "continent": "Europe", "capital": "", "currency": "", "area": ""}, {"name": "Sri Lanka", "iso2": "LK", "iso3": "LKA", "isoNumeric": "", "phoneCode": "", "continent": "Asia", "capital": "", "currency": "", "area": ""}, {"name": "Sudan", "iso2": "SD", "iso3": "SDN", "isoNumeric": "", "phoneCode": "", "continent": "Africa", "capital": "", "currency": "", "area": ""}, {"name": "Suriname", "iso2": "SR", "iso3": "SUR", "isoNumeric": "", "phoneCode": "", "continent": "South America", "capital": "", "currency": "", "area": ""}, {"name": "Svalbard and Jan Mayen", "iso2": "SJ", "iso3": "SJM", "isoNumeric": "", "phoneCode": "", "continent": "Arctic", "capital": "", "currency": "", "area": ""}, {"name": "Swaziland", "iso2": "SZ", "iso3": "SWZ", "isoNumeric": "", "phoneCode": "", "continent": "Africa", "capital": "", "currency": "", "area": ""}, {"name": "Sweden", "iso2": "SE", "iso3": "SWE", "isoNumeric": "", "phoneCode": "", "continent": "Europe", "capital": "", "currency": "", "area": ""}, {"name": "Switzerland", "iso2": "CH", "iso3": "CHE", "isoNumeric": "", "phoneCode": "", "continent": "Europe", "capital": "", "currency": "", "area": ""}, {"name": "Syria", "iso2": "SY", "iso3": "SYR", "isoNumeric": "", "phoneCode": "", "continent": "Asia", "capital": "", "currency": "", "area": ""}, {"name": "Taiwan Region", "iso2": "TW", "iso3": "TWN", "isoNumeric": "", "phoneCode": "", "continent": "Asia", "capital": "", "currency": "", "area": ""}, {"name": "Tajikistan", "iso2": "TJ", "iso3": "TJK", "isoNumeric": "", "phoneCode": "", "continent": "Asia", "capital": "", "currency": "", "area": ""}, {"name": "Tanzania", "iso2": "TZ", "iso3": "TZA", "isoNumeric": "", "phoneCode": "", "continent": "Africa", "capital": "", "currency": "", "area": ""}, {"name": "Thailand", "iso2": "TH", "iso3": "THA", "isoNumeric": "", "phoneCode": "", "continent": "Asia", "capital": "", "currency": "", "area": ""}, {"name": "Timor-Leste", "iso2": "TL", "iso3": "TLS", "isoNumeric": "", "phoneCode": "", "continent": "Asia", "capital": "", "currency": "", "area": ""}, {"name": "Togo", "iso2": "TG", "iso3": "TGO", "isoNumeric": "", "phoneCode": "", "continent": "Africa", "capital": "", "currency": "", "area": ""}, {"name": "Tokelau", "iso2": "TK", "iso3": "TKL", "isoNumeric": "", "phoneCode": "", "continent": "Australia", "capital": "", "currency": "", "area": ""}, {"name": "Tonga", "iso2": "TO", "iso3": "TON", "isoNumeric": "", "phoneCode": "", "continent": "Australia", "capital": "", "currency": "", "area": ""}, {"name": "Trinidad and Tobago", "iso2": "TT", "iso3": "TTO", "isoNumeric": "", "phoneCode": "", "continent": "North America", "capital": "", "currency": "", "area": ""}, {"name": "Tunisia", "iso2": "TN", "iso3": "TUN", "isoNumeric": "", "phoneCode": "", "continent": "Africa", "capital": "", "currency": "", "area": ""}, {"name": "Turkey", "iso2": "TR", "iso3": "TUR", "isoNumeric": "", "phoneCode": "", "continent": "Europe", "capital": "", "currency": "", "area": ""}, {"name": "Turkmenistan", "iso2": "TM", "iso3": "TKM", "isoNumeric": "", "phoneCode": "", "continent": "Asia", "capital": "", "currency": "", "area": ""}, {"name": "Turks and Caicos Islands", "iso2": "TC", "iso3": "TCA", "isoNumeric": "", "phoneCode": "", "continent": "North America", "capital": "", "currency": "", "area": ""}, {"name": "Tuvalu", "iso2": "TV", "iso3": "TUV", "isoNumeric": "", "phoneCode": "", "continent": "Australia", "capital": "", "currency": "", "area": ""}, {"name": "U.S. Virgin Islands", "iso2": "VI", "iso3": "VIR", "isoNumeric": "", "phoneCode": "", "continent": "North America", "capital": "", "currency": "", "area": ""}, {"name": "Uganda", "iso2": "UG", "iso3": "UGA", "isoNumeric": "", "phoneCode": "", "continent": "Africa", "capital": "", "currency": "", "area": ""}, {"name": "Ukraine", "iso2": "UA", "iso3": "UKR", "isoNumeric": "", "phoneCode": "", "continent": "Europe", "capital": "", "currency": "", "area": ""}, {"name": "United Arab Emirates", "iso2": "AE", "iso3": "ARE", "isoNumeric": "", "phoneCode": "", "continent": "Asia", "capital": "", "currency": "", "area": ""}, {"name": "United Kingdom", "iso2": "GB", "iso3": "GBR", "isoNumeric": "", "phoneCode": "", "continent": "Europe", "capital": "", "currency": "", "area": ""}, {"name": "United States", "iso2": "US", "iso3": "USA", "isoNumeric": "", "phoneCode": "", "continent": "North America", "capital": "", "currency": "", "area": ""}, {"name": "United States Minor Outlying Islands", "iso2": "UM", "iso3": "UMI", "isoNumeric": "", "phoneCode": "", "continent": "Asia", "capital": "", "currency": "", "area": ""}, {"name": "Uruguay", "iso2": "UY", "iso3": "URY", "isoNumeric": "", "phoneCode": "", "continent": "South America", "capital": "", "currency": "", "area": ""}, {"name": "Uzbekistan", "iso2": "UZ", "iso3": "UZB", "isoNumeric": "", "phoneCode": "", "continent": "Asia", "capital": "", "currency": "", "area": ""}, {"name": "Vanuatu", "iso2": "VU", "iso3": "VUT", "isoNumeric": "", "phoneCode": "", "continent": "Australia", "capital": "", "currency": "", "area": ""}, {"name": "Vatican", "iso2": "VA", "iso3": "VAT", "isoNumeric": "", "phoneCode": "", "continent": "Europe", "capital": "", "currency": "", "area": ""}, {"name": "Venezuela", "iso2": "VE", "iso3": "VEN", "isoNumeric": "", "phoneCode": "", "continent": "South America", "capital": "", "currency": "", "area": ""}, {"name": "Vietnam", "iso2": "VN", "iso3": "VNM", "isoNumeric": "", "phoneCode": "", "continent": "Asia", "capital": "", "currency": "", "area": ""}, {"name": "Wallis and Futuna", "iso2": "WF", "iso3": "WLF", "isoNumeric": "", "phoneCode": "", "continent": "Australia", "capital": "", "currency": "", "area": ""}, {"name": "Western Sahara", "iso2": "EH", "iso3": "ESH", "isoNumeric": "", "phoneCode": "", "continent": "Africa", "capital": "", "currency": "", "area": ""}, {"name": "Yemen", "iso2": "YE", "iso3": "YEM", "isoNumeric": "", "phoneCode": "", "continent": "Asia", "capital": "", "currency": "", "area": ""}, {"name": "Zambia", "iso2": "ZM", "iso3": "ZMB", "isoNumeric": "", "phoneCode": "", "continent": "Africa", "capital": "", "currency": "", "area": ""}, {"name": "Zimbabwe", "iso2": "ZW", "iso3": "ZWE", "isoNumeric": "", "phoneCode": "", "continent": "Africa", "capital": "", "currency": "", "area": ""}]